BEIDOU-2 G5 (C05)       
1 38091U 12008A   26116.93340760  .00000048  00000+0  00000+0 0  9990
2 38091   3.4483  69.9859 0012271 266.0670 273.6426  1.00273179 51850
BEIDOU-2 M3 (C11)       
1 38250U 12018A   26116.64076442 -.00000057  00000+0  00000+0 0  9990
2 38250  55.8029 306.6119 0019716 278.0782  81.7021  1.86229681 94985
BEIDOU-2 M4 (C12)       
1 38251U 12018B   26116.57298426 -.00000057  00000+0  00000+0 0  9991
2 38251  55.7028 305.8322 0011017 283.8904  75.9901  1.86229346 94987
SES-5 (EGNOS/PRN 136)   
1 38652U 12036A   26116.70892005  .00000022  00000+0  00000+0 0  9995
2 38652   0.0594 300.4218 0002088  91.2198  83.2535  1.00271509 43941
BEIDOU-2 M6 (C14)       
1 38775U 12050B   26115.20896256 -.00000027  00000+0  00000+0 0  9999
2 38775  56.5004  64.6451 0014489 348.5468  11.3943  1.86230847 92328
GSAT-10 (GAGAN/PRN 128) 
1 38779U 12051B   26116.93826096 -.00000175  00000+0  00000+0 0  9994
2 38779   0.0228 263.3537 0007008 178.5539 193.7649  1.00270013 49589
GPS BIIF-3  (PRN 24)    
1 38833U 12053A   26113.97246792  .00000040  00000+0  00000+0 0  9997
2 38833  53.5743 145.8203 0177937  65.1328 296.7656  2.00566553 98354
GSAT0103 (GALILEO-FM3)  
1 38857U 12055A   26115.09622636  .00000047  00000+0  00000+0 0  9992
2 38857  55.7743 103.0007 0005916 295.5097  64.4243  1.70473359 84108
BEIDOU-2 G6 (C02)       
1 38953U 12059A   26116.93843429 -.00000183  00000+0  00000+0 0  9994
2 38953   4.2942  74.0532 0010575 314.2628 248.4057  1.00274556 49391
LUCH 5B (SDCM/PRN 125)  
1 38977U 12061A   26116.63334639 -.00000144  00000+0  00000+0 0  9995
2 38977  10.3758  50.3860 0001746 214.4280 161.5503  1.00271594 49093
COSMOS 2485 (747)       
1 39155U 13019A   26113.00664174  .00000025  00000+0  00000+0 0  9993
2 39155  65.3905  75.4553 0024583 237.7272 122.0157  2.13103112101109
GPS BIIF-4  (PRN 27)    
1 39166U 13023A   26116.33094632 -.00000048  00000+0  00000+0 0  9991
2 39166  54.5462 271.0846 0141890  50.6724 310.5447  2.00563766 94842
IRNSS-1A                
1 39199U 13034A   26116.93262760  .00000076  00000+0  00000+0 0  9994
2 39199  35.6121  64.6024 0017019 187.3154 353.7046  1.00272532 46853
GPS BIIF-5  (PRN 30)    
1 39533U 14008A   26115.83306423  .00000051  00000+0  00000+0 0  9994
2 39533  53.6445 151.4553 0083783 230.1189 129.2056  2.00556415 88637
ASTRA 5B (EGNOS/PRN 123)
1 39617U 14011B   26116.93257965  .00000126  00000+0  00000+0 0  9992
2 39617   0.0673 307.7822 0002679  65.9397 200.4278  1.00269811 44151
COSMOS 2492 (754)       
1 39620U 14012A   26111.55782382 -.00000024  00000+0  00000+0 0  9994
2 39620  65.3303 315.8614 0011743 330.3825  29.5784  2.13103169 94037
IRNSS-1B                
1 39635U 14017A   26116.93254094  .00000074  00000+0  00000+0 0  9990
2 39635  29.0143 241.2832 0023442 182.2406 182.0336  1.00272944 44287
